CCSDS_OEM_VERS = 1.0
CREATION_DATE  = 2017-05-11T11:02:42
ORIGINATOR     = GMAT USER

META_START
OBJECT_NAME          = MOPSSat_alt_35785_km_RAAN_0_091
OBJECT_ID            = SatId
CENTER_NAME          = Earth
REF_FRAME            = EME2000
TIME_SYSTEM          = UTC
START_TIME           = 2017-01-01T00:00:00.000
USEABLE_START_TIME   = 2017-01-01T00:00:00.000
USEABLE_STOP_TIME    = 2017-01-02T00:00:00.000
STOP_TIME            = 2017-01-02T00:00:00.000
INTERPOLATION        = Lagrange
INTERPOLATION_DEGREE = 7 
META_STOP


                                                                                   

2017-01-01T10:32:30.000  -3.972520189249833e+04   1.502860809544737e+04   2.649621640940184e+03  -1.102882075668119e+00  -2.796493331945229e+00  -4.930857303527921e-01
2017-01-01T10:32:40.000  -3.973622043895659e+04   1.500063927798926e+04   2.644690098881905e+03  -1.100827105906465e+00  -2.797269872382727e+00  -4.932226306445954e-01
2017-01-01T10:32:50.000  -3.974721843286166e+04   1.497266270261708e+04   2.639757189141470e+03  -1.098771583003861e+00  -2.798044959862833e+00  -4.933592747376698e-01
2017-01-01T10:33:00.000  -3.975819586868773e+04   1.494467838386238e+04   2.634822914281207e+03  -1.096715508002666e+00  -2.798818594018806e+00  -4.934956625673645e-01
2017-01-01T10:33:10.000  -3.976915274093162e+04   1.491668633622935e+04   2.629887276858629e+03  -1.094658881943192e+00  -2.799590774485477e+00  -4.936317940693064e-01
2017-01-01T10:33:20.000  -3.978008904413824e+04   1.488868657412779e+04   2.624950279414609e+03  -1.092601705858771e+00  -2.800361500901031e+00  -4.937676691797121e-01
2017-01-01T10:33:30.000  -3.979100477286196e+04   1.486067911197346e+04   2.620011924491062e+03  -1.090543980783134e+00  -2.801130772904281e+00  -4.939032878349112e-01
2017-01-01T10:33:40.000  -3.980189992166284e+04   1.483266396419819e+04   2.615072214632740e+03  -1.088485707751153e+00  -2.801898590134410e+00  -4.940386499712970e-01
2017-01-01T10:33:50.000  -3.981277448509447e+04   1.480464114527734e+04   2.610131152392069e+03  -1.086426887800856e+00  -2.802664952230114e+00  -4.941737555251769e-01
2017-01-01T10:34:00.000  -3.982362845769685e+04   1.477661066975270e+04   2.605188740333195e+03  -1.084367521975114e+00  -2.803429858829091e+00  -4.943086044326839e-01
2017-01-01T10:34:10.000  -3.983446183402768e+04   1.474857255214990e+04   2.600244981017404e+03  -1.082307611315567e+00  -2.804193309570260e+00  -4.944431966301641e-01
2017-01-01T10:34:20.000  -3.984527460852169e+04   1.472052680734853e+04   2.595299877068398e+03  -1.080247156889820e+00  -2.804955304083833e+00  -4.945775320524300e-01
2017-01-01T10:34:30.000  -3.985606677566149e+04   1.469247345013373e+04   2.590353431093226e+03  -1.078186159758498e+00  -2.805715842003366e+00  -4.947116106348840e-01
2017-01-01T10:34:40.000  -3.986683832991391e+04   1.466441249536283e+04   2.585405645711666e+03  -1.076124620987490e+00  -2.806474922961268e+00  -4.948454323127256e-01
2017-01-01T10:34:50.000  -3.987758926597793e+04   1.463634395732000e+04   2.580456523442432e+03  -1.074062541600535e+00  -2.807232546606274e+00  -4.949789970240322e-01
2017-01-01T10:35:00.000  -3.988831957853713e+04   1.460826785035989e+04   2.575506066816664e+03  -1.071999922626511e+00  -2.807988712586002e+00  -4.951123047066848e-01
2017-01-01T10:35:10.000  -3.989902926231617e+04   1.458018418876192e+04   2.570554278352246e+03  -1.069936765088729e+00  -2.808743420550925e+00  -4.952453552990683e-01
2017-01-01T10:35:20.000  -3.990971831193925e+04   1.455209298709298e+04   2.565601160617738e+03  -1.067873070031579e+00  -2.809496670144406e+00  -4.953781487383128e-01
2017-01-01T10:35:30.000  -3.992038672203598e+04   1.452399425993841e+04   2.560646716184958e+03  -1.065808838500766e+00  -2.810248461010153e+00  -4.955106849616107e-01
2017-01-01T10:35:40.000  -3.993103448724028e+04   1.449588802190160e+04   2.555690947628908e+03  -1.063744071543286e+00  -2.810998792792144e+00  -4.956429639062010e-01
2017-01-01T10:35:50.000  -3.994166160209073e+04   1.446777428787524e+04   2.550733857575598e+03  -1.061678770227338e+00  -2.811747665127605e+00  -4.957749855081328e-01
2017-01-01T10:36:00.000  -3.995226806116582e+04   1.443965307267633e+04   2.545775448637693e+03  -1.059612935615530e+00  -2.812495077656540e+00  -4.959067497039450e-01
2017-01-01T10:36:10.000  -3.996285385903039e+04   1.441152439118986e+04   2.540815723439844e+03  -1.057546568775418e+00  -2.813241030017954e+00  -4.960382564300007e-01
2017-01-01T10:36:20.000  -3.997341899047462e+04   1.438338825773402e+04   2.535854684506767e+03  -1.055479670732884e+00  -2.813985521866701e+00  -4.961695056254558e-01
2017-01-01T10:36:30.000  -3.998396345027474e+04   1.435524468669493e+04   2.530892334375146e+03  -1.053412242518759e+00  -2.814728552856612e+00  -4.963004972292880e-01
2017-01-01T10:36:40.000  -3.999448723324762e+04   1.432709369238317e+04   2.525928675568359e+03  -1.051344285158287e+00  -2.815470122644352e+00  -4.964312311809724e-01
2017-01-01T10:36:50.000  -4.000499033411151e+04   1.429893528939744e+04   2.520963710660569e+03  -1.049275799697836e+00  -2.816210230879598e+00  -4.965617074187545e-01
2017-01-01T10:37:00.000  -4.001547274759028e+04   1.427076949235486e+04   2.515997442229207e+03  -1.047206787185091e+00  -2.816948877212388e+00  -4.966919258809410e-01
2017-01-01T10:37:10.000  -4.002593446841212e+04   1.424259631589058e+04   2.511029872854866e+03  -1.045137248669020e+00  -2.817686061293033e+00  -4.968218865058888e-01
2017-01-01T10:37:20.000  -4.003637549121184e+04   1.421441577492966e+04   2.506061005169262e+03  -1.043067185219848e+00  -2.818421782765228e+00  -4.969515892307869e-01
2017-01-01T10:37:30.000  -4.004679581066372e+04   1.418622788432120e+04   2.501090841790722e+03  -1.040996597902180e+00  -2.819156041275407e+00  -4.970810339933089e-01
2017-01-01T10:37:40.000  -4.005719542142868e+04   1.415803265898239e+04   2.496119385349571e+03  -1.038925487785583e+00  -2.819888836469043e+00  -4.972102207309578e-01
2017-01-01T10:37:50.000  -4.006757431838936e+04   1.412983011326221e+04   2.491146638375952e+03  -1.036853855897848e+00  -2.820620168007183e+00  -4.973391493839822e-01
2017-01-01T10:38:00.000  -4.007793249641488e+04   1.410162026157764e+04   2.486172603411992e+03  -1.034781703271720e+00  -2.821350035549892e+00  -4.974678198924580e-01
2017-01-01T10:38:10.000  -4.008826995041443e+04   1.407340311826989e+04   2.481197282986465e+03  -1.032709030934343e+00  -2.822078438760023e+00  -4.975962321969529e-01
2017-01-01T10:38:20.000  -4.009858667520053e+04   1.404517869796891e+04   2.476220679679049e+03  -1.030635839934028e+00  -2.822805377293584e+00  -4.977243862368271e-01
2017-01-01T10:38:30.000  -4.010888266559140e+04   1.401694701532303e+04   2.471242796072668e+03  -1.028562131320399e+00  -2.823530850806943e+00  -4.978522819515050e-01
2017-01-01T10:38:40.000  -4.011915791640979e+04   1.398870808499859e+04   2.466263634753417e+03  -1.026487906144365e+00  -2.824254858956756e+00  -4.979799192804616e-01
2017-01-01T10:38:50.000  -4.012941242238686e+04   1.396046192195240e+04   2.461283198358616e+03  -1.024413165478134e+00  -2.824977401393193e+00  -4.981072981620285e-01
2017-01-01T10:39:00.000  -4.013964617829277e+04   1.393220854106513e+04   2.456301489512144e+03  -1.022337910388275e+00  -2.825698477769135e+00  -4.982344185350145e-01
2017-01-01T10:39:10.000  -4.014985917888393e+04   1.390394795728831e+04   2.451318510850388e+03  -1.020262141946528e+00  -2.826418087736453e+00  -4.983612803380519e-01
2017-01-01T10:39:20.000  -4.016005141913732e+04   1.387568018499592e+04   2.446334264907899e+03  -1.018185861182176e+00  -2.827136230962529e+00  -4.984878835125066e-01
2017-01-01T10:39:30.000  -4.017022289401539e+04   1.384740523863445e+04   2.441348754232002e+03  -1.016109069129781e+00  -2.827852907113688e+00  -4.986142279995579e-01
2017-01-01T10:39:40.000  -4.018037359852695e+04   1.381912313255506e+04   2.436361981353224e+03  -1.014031766816873e+00  -2.828568115859479e+00  -4.987403137409543e-01
2017-01-01T10:39:50.000  -4.019050352756275e+04   1.379083388146442e+04   2.431373948864772e+03  -1.011953955297053e+00  -2.829281856861104e+00  -4.988661406769718e-01
2017-01-01T10:40:00.000  -4.020061267603157e+04   1.376253750005285e+04   2.426384659356970e+03  -1.009875635622683e+00  -2.829994129780993e+00  -4.989917087481043e-01
2017-01-01T10:40:10.000  -4.021070103882969e+04   1.373423400307723e+04   2.421394115431882e+03  -1.007796808850977e+00  -2.830704934280664e+00  -4.991170178946835e-01
2017-01-01T10:40:20.000  -4.022076861085060e+04   1.370592340533897e+04   2.416402319699413e+03  -1.005717476042378e+00  -2.831414270021403e+00  -4.992420680570012e-01
2017-01-01T10:40:30.000  -4.023081538699373e+04   1.367760572165532e+04   2.411409274772274e+03  -1.003637638258459e+00  -2.832122136664876e+00  -4.993668591754156e-01
2017-01-01T10:40:40.000  -4.024084136216828e+04   1.364928096684926e+04   2.406414983264176e+03  -1.001557296561171e+00  -2.832828533873400e+00  -4.994913911904007e-01
2017-01-01T10:40:50.000  -4.025084653132974e+04   1.362094915564839e+04   2.401419447772016e+03  -9.994764520054245e-01  -2.833533461312524e+00  -4.996156640429988e-01
2017-01-01T10:41:00.000  -4.026083088945514e+04   1.359261030275218e+04   2.396422670887734e+03  -9.973951056440263e-01  -2.834236918649271e+00  -4.997396776745135e-01
2017-01-01T10:41:10.000  -4.027079443154316e+04   1.356426442283204e+04   2.391424655198314e+03  -9.953132585276826e-01  -2.834938905552161e+00  -4.998634320265115e-01
2017-01-01T10:41:20.000  -4.028073715263727e+04   1.353591153046343e+04   2.386425403273832e+03  -9.932309117000171e-01  -2.835639421692830e+00  -4.999869270411090e-01
2017-01-01T10:41:30.000  -4.029065904779050e+04   1.350755164022743e+04   2.381424917685349e+03  -9.911480662050298e-01  -2.836338466743547e+00  -5.001101626605343e-01
